{"type": "FeatureCollection", "features": [ {"type": "Feature", "properties": {"norad_id": 31024, "name": "FENGYUN 1C DEB", "group": "fengyun-1c-debris", "lat": 80.30204800082672, "lon": 158.13862913959457, "alt_km": 760.9219090316192, "timestamp": "2025-12-21T20:41:08.240676+00:00", "meta": {"OBJECT_NAME": "FENGYUN 1C DEB", "OBJECT_ID": "1999-025BDS", "EPOCH": "2025-12-20T05:22:46.706016", "MEAN_MOTION": 14.20867875, "ECCENTRICITY": 0.0075376, "INCLINATION": 99.0428, "RA_OF_ASC_NODE": 267.7364, "ARG_OF_PERICENTER": 103.4844, "MEAN_ANOMALY": 257.4745, "EPHEMERIS_TYPE": 0, "CLASSIFICATION_TYPE": "U", "NORAD_CAT_ID": 31024, "ELEMENT_SET_NO": 999, "REV_AT_EPOCH": 96810, "BSTAR": 0.00021416, "MEAN_MOTION_DOT": 4.31e-06, "MEAN_MOTION_DDOT": 0}, "tle": {"line1": "1 31024U 99025BDS 25354.22415169  .00000431  00000+0  21416-3 0  9998", "line2": "2 31024  99.0428 267.7364 0075376 103.4844 257.4745 14.20867875968107"}}, "geometry": {"type": "Point", "coordinates": [158.13862913959457, 80.30204800082672]}}, {"type": "Feature", "properties": {"norad_id": 31025, "name": "FENGYUN 1C DEB", "group": "fengyun-1c-debris", "lat": -79.60251070585677, "lon": 41.15474163280522, "alt_km": 786.9908326810682, "timestamp": "2025-12-21T20:41:08.240686+00:00", "meta": {"OBJECT_NAME": "FENGYUN 1C DEB", "OBJECT_ID": "1999-025BDT", "EPOCH": "2025-12-07T05:28:07.771008", "MEAN_MOTION": 14.20521805, "ECCENTRICITY": 0.01734931, "INCLINATION": 98.58, "RA_OF_ASC_NODE": 331.5793, "ARG_OF_PERICENTER": 28.741, "MEAN_ANOMALY": 332.3194, "EPHEMERIS_TYPE": 0, "CLASSIFICATION_TYPE": "U", "NORAD_CAT_ID": 31025, "ELEMENT_SET_NO": 999, "REV_AT_EPOCH": 64287, "BSTAR": 0.0012507545, "MEAN_MOTION_DOT": 3.084e-05, "MEAN_MOTION_DDOT": 0}, "tle": {"line1": "1 31025U 99025BDT 25341.22786772  .00003084  00000+0  12508-2 0  9994", "line2": "2 31025  98.5800 331.5793 0173493  28.7410 332.3194 14.20521805642873"}}, "geometry": {"type": "Point", "coordinates": [41.15474163280522, -79.60251070585677]}}, {"type": "Feature", "properties": {"norad_id": 31026, "name": "FENGYUN 1C DEB", "group": "fengyun-1c-debris", "lat": 36.81871915810717, "lon": 117.46229219114969, "alt_km": 853.9256265541289, "timestamp": "2025-12-21T20:41:08.240695+00:00", "meta": {"OBJECT_NAME": "FENGYUN 1C DEB", "OBJECT_ID": "1999-025BDU", "EPOCH": "2025-12-16T14:07:08.116896", "MEAN_MOTION": 13.83400412, "ECCENTRICITY": 0.01344959, "INCLINATION": 98.7801, "RA_OF_ASC_NODE": 285.8947, "ARG_OF_PERICENTER": 172.0946, "MEAN_ANOMALY": 1.2766, "EPHEMERIS_TYPE": 0, "CLASSIFICATION_TYPE": "U", "NORAD_CAT_ID": 31026, "ELEMENT_SET_NO": 999, "REV_AT_EPOCH": 68079, "BSTAR": 0.00014906948, "MEAN_MOTION_DOT": 1.36e-06, "MEAN_MOTION_DDOT": 0}, "tle": {"line1": "1 31026U 99025BDU 25350.58828839  .00000136  00000+0  14907-3 0  9996", "line2": "2 31026  98.7801 285.8947 0134495 172.0946   1.2766 13.83400412680793"}}, "geometry": {"type": "Point", "coordinates": [117.46229219114969, 36.81871915810717]}}, {"type": "Feature", "properties": {"norad_id": 31028, "name": "FENGYUN 1C DEB", "group": "fengyun-1c-debris", "lat": -20.59114726690553, "lon": -69.58016241482986, "alt_km": 893.9773842443365, "timestamp": "2025-12-21T20:41:08.240704+00:00", "meta": {"OBJECT_NAME": "FENGYUN 1C DEB", "OBJECT_ID": "1999-025BDW", "EPOCH": "2025-12-16T00:45:35.214048", "MEAN_MOTION": 13.89074855, "ECCENTRICITY": 0.01643907, "INCLINATION": 98.7052, "RA_OF_ASC_NODE": 281.6698, "ARG_OF_PERICENTER": 285.3135, "MEAN_ANOMALY": 72.9908, "EPHEMERIS_TYPE": 0, "CLASSIFICATION_TYPE": "U", "NORAD_CAT_ID": 31028, "ELEMENT_SET_NO": 999, "REV_AT_EPOCH": 62049, "BSTAR": 0.0002880402, "MEAN_MOTION_DOT": 3.48e-06, "MEAN_MOTION_DDOT": 0}, "tle": {"line1": "1 31028U 99025BDW 25350.03165757  .00000348  00000+0  28804-3 0  9997", "line2": "2 31028  98.7052 281.6698 0164390 285.3135  72.9908 13.89074855620493"}}, "geometry": {"type": "Point", "coordinates": [-69.58016241482986, -20.59114726690553]}}, {"type": "Feature", "properties": {"norad_id": 31029, "name": "FENGYUN 1C DEB", "group": "fengyun-1c-debris", "lat": -57.36024662195886, "lon": -92.91919802418532, "alt_km": 801.2240800965756, "timestamp": "2025-12-21T20:41:08.240713+00:00", "meta": {"OBJECT_NAME": "FENGYUN 1C DEB", "OBJECT_ID": "1999-025BDX", "EPOCH": "2025-12-20T12:17:42.853920", "MEAN_MOTION": 14.34336499, "ECCENTRICITY": 0.00900621, "INCLINATION": 98.8586, "RA_OF_ASC_NODE": 251.6054, "ARG_OF_PERICENTER": 51.2725, "MEAN_ANOMALY": 126.4832, "EPHEMERIS_TYPE": 0, "CLASSIFICATION_TYPE": "U", "NORAD_CAT_ID": 31029, "ELEMENT_SET_NO": 999, "REV_AT_EPOCH": 97907, "BSTAR": 0.00025072444, "MEAN_MOTION_DOT": 6.91e-06, "MEAN_MOTION_DDOT": 0}, "tle": {"line1": "1 31029U 99025BDX 25354.51230155  .00000691  00000+0  25072-3 0  9995", "line2": "2 31029  98.8586 251.6054 0090062  51.2725 126.4832 14.34336499979077"}}, "geometry": {"type": "Point", "coordinates": [-92.91919802418532, -57.36024662195886]}}, {"type": "Feature", "properties": {"norad_id": 31030, "name": "FENGYUN 1C DEB", "group": "fengyun-1c-debris", "lat": 44.03278100527997, "lon": -113.66777927269695, "alt_km": 804.6261753016151, "timestamp": "2025-12-21T20:41:08.240721+00:00", "meta": {"OBJECT_NAME": "FENGYUN 1C DEB", "OBJECT_ID": "1999-025BDY", "EPOCH": "2025-12-21T10:00:14.023872", "MEAN_MOTION": 14.23704301, "ECCENTRICITY": 0.002732, "INCLINATION": 98.7659, "RA_OF_ASC_NODE": 57.3097, "ARG_OF_PERICENTER": 59.4913, "MEAN_ANOMALY": 315.5775, "EPHEMERIS_TYPE": 0, "CLASSIFICATION_TYPE": "U", "NORAD_CAT_ID": 31030, "ELEMENT_SET_NO": 999, "REV_AT_EPOCH": 96828, "BSTAR": 0.0006996283, "MEAN_MOTION_DOT": 1.559e-05, "MEAN_MOTION_DDOT": 0}, "tle": {"line1": "1 31030U 99025BDY 25355.41682898  .00001559  00000+0  69963-3 0  9993", "line2": "2 31030  98.7659  57.3097 0027320  59.4913 315.5775 14.23704301968280"}}, "geometry": {"type": "Point", "coordinates": [-113.66777927269695, 44.03278100527997]}}, {"type": "Feature", "properties": {"norad_id": 31031, "name": "FENGYUN 1C DEB", "group": "fengyun-1c-debris", "lat": 48.19473865546162, "lon": -97.08568933994394, "alt_km": 824.8301937037277, "timestamp": "2025-12-21T20:41:08.240731+00:00", "meta": {"OBJECT_NAME": "FENGYUN 1C DEB", "OBJECT_ID": "1999-025BDZ", "EPOCH": "2025-12-15T06:19:29.672832", "MEAN_MOTION": 14.20989204, "ECCENTRICITY": 0.00278558, "INCLINATION": 99.0717, "RA_OF_ASC_NODE": 266.4341, "ARG_OF_PERICENTER": 179.1838, "MEAN_ANOMALY": 334.5534, "EPHEMERIS_TYPE": 0, "CLASSIFICATION_TYPE": "U", "NORAD_CAT_ID": 31031, "ELEMENT_SET_NO": 999, "REV_AT_EPOCH": 96890, "BSTAR": 0.00042975182, "MEAN_MOTION_DOT": 8.88e-06, "MEAN_MOTION_DDOT": 0}, "tle": {"line1": "1 31031U 99025BDZ 25349.26353788  .00000888  00000+0  42975-3 0  9991", "line2": "2 31031  99.0717 266.4341 0027855 179.1838 334.5534 14.20989204968901"}}, "geometry": {"type": "Point", "coordinates": [-97.08568933994394, 48.19473865546162]}}, {"type": "Feature", "properties": {"norad_id": 31032, "name": "FENGYUN 1C DEB", "group": "fengyun-1c-debris", "lat": 6.412910369975648, "lon": -173.96251807724968, "alt_km": 786.9801110316521, "timestamp": "2025-12-21T20:41:08.240740+00:00", "meta": {"OBJECT_NAME": "FENGYUN 1C DEB", "OBJECT_ID": "1999-025BEA", "EPOCH": "2025-12-21T08:28:36.556896", "MEAN_MOTION": 14.02232025, "ECCENTRICITY": 0.01392277, "INCLINATION": 99.3985, "RA_OF_ASC_NODE": 4.4464, "ARG_OF_PERICENTER": 172.5953, "MEAN_ANOMALY": 314.1845, "EPHEMERIS_TYPE": 0, "CLASSIFICATION_TYPE": "U", "NORAD_CAT_ID": 31032, "ELEMENT_SET_NO": 999, "REV_AT_EPOCH": 95102, "BSTAR": 0.0011546943, "MEAN_MOTION_DOT": 1.879e-05, "MEAN_MOTION_DDOT": 0}, "tle": {"line1": "1 31032U 99025BEA 25355.35320089  .00001879  00000+0  11547-2 0  9998", "line2": "2 31032  99.3985   4.4464 0139227 172.5953 314.1845 14.02232025951026"}}, "geometry": {"type": "Point", "coordinates": [-173.96251807724968, 6.412910369975648]}}, {"type": "Feature", "properties": {"norad_id": 31033, "name": "FENGYUN 1C DEB", "group": "fengyun-1c-debris", "lat": -27.533179317048972, "lon": -21.68525097685097, "alt_km": 845.2015806955305, "timestamp": "2025-12-21T20:41:08.240749+00:00", "meta": {"OBJECT_NAME": "FENGYUN 1C DEB", "OBJECT_ID": "1999-025BEB", "EPOCH": "2025-12-20T21:24:14.848992", "MEAN_MOTION": 14.27460448, "ECCENTRICITY": 0.0154244, "INCLINATION": 98.4391, "RA_OF_ASC_NODE": 332.9391, "ARG_OF_PERICENTER": 86.6713, "MEAN_ANOMALY": 305.0657, "EPHEMERIS_TYPE": 0, "CLASSIFICATION_TYPE": "U", "NORAD_CAT_ID": 31033, "ELEMENT_SET_NO": 999, "REV_AT_EPOCH": 97462, "BSTAR": 0.00014517, "MEAN_MOTION_DOT": 3.62e-06, "MEAN_MOTION_DDOT": 0}, "tle": {"line1": "1 31033U 99025BEB 25354.89183853  .00000362  00000+0  14517-3 0  9990", "line2": "2 31033  98.4391 332.9391 0154244  86.6713 305.0657 14.27460448974621"}}, "geometry": {"type": "Point", "coordinates": [-21.68525097685097, -27.533179317048972]}}, {"type": "Feature", "properties": {"norad_id": 31036, "name": "FENGYUN 1C DEB", "group": "fengyun-1c-debris", "lat": 47.74965299089926, "lon": -67.2119635009403, "alt_km": 749.4653033178329, "timestamp": "2025-12-21T20:41:08.240758+00:00", "meta": {"OBJECT_NAME": "FENGYUN 1C DEB", "OBJECT_ID": "1999-025BEE", "EPOCH": "2025-12-18T06:02:23.919072", "MEAN_MOTION": 14.49084458, "ECCENTRICITY": 0.01375082, "INCLINATION": 98.9148, "RA_OF_ASC_NODE": 99.0243, "ARG_OF_PERICENTER": 247.8939, "MEAN_ANOMALY": 142.2947, "EPHEMERIS_TYPE": 0, "CLASSIFICATION_TYPE": "U", "NORAD_CAT_ID": 31036, "ELEMENT_SET_NO": 999, "REV_AT_EPOCH": 57387, "BSTAR": 0.00021841941, "MEAN_MOTION_DOT": 8.77e-06, "MEAN_MOTION_DDOT": 0}, "tle": {"line1": "1 31036U 99025BEE 25352.25166573  .00000877  00000+0  21842-3 0  9991", "line2": "2 31036  98.9148  99.0243 0137508 247.8939 142.2947 14.49084458573873"}}, "geometry": {"type": "Point", "coordinates": [-67.2119635009403, 47.74965299089926]}}]}